[
    {
        "Altitude(m)": 607886.7125520759,
        "Argument of Periapsis(deg)": 0.0,
        "Eccentricity": 0.0,
        "Inclination(deg)": 60.0,
        "Latitude(deg)": 40.99850081616817,
        "Longitude(deg)": 19.97285735681968,
        "Mean Anomaly(deg)": 49.09089999999999,
        "RAAN(deg)": 90.0,
        "Satellite Name": "Test1 399",
        "Satellite Number": 399,
        "Semi-Major Axis(m)": 6980739.136638005,
        "Time(s)": 0
    },
    {
        "Altitude(m)": 607987.6270998808,
        "Argument of Periapsis(deg)": 0.00010418945913296404,
        "Eccentricity": 0.0,
        "Inclination(deg)": 60.0,
        "Latitude(deg)": 41.46359213011484,
        "Longitude(deg)": 20.477083657170006,
        "Mean Anomaly(deg)": 49.71100614546184,
        "RAAN(deg)": 89.99957995086027,
        "Satellite Name": "Test1 399",
        "Satellite Number": 399,
        "Semi-Major Axis(m)": 6980739.136638005,
        "Time(s)": 10
    },
    {
        "Altitude(m)": 608088.5912677672,
        "Argument of Periapsis(deg)": 0.0002083789182659281,
        "Eccentricity": 0.0,
        "Inclination(deg)": 60.0,
        "Latitude(deg)": 41.92601928489036,
        "Longitude(deg)": 20.989132980611856,
        "Mean Anomaly(deg)": 50.33111229092365,
        "RAAN(deg)": 89.99915990172052,
        "Satellite Name": "Test1 399",
        "Satellite Number": 399,
        "Semi-Major Axis(m)": 6980739.136638005,
        "Time(s)": 20
    },
    {
        "Altitude(m)": 608189.5418342437,
        "Argument of Periapsis(deg)": 0.00031256837739889213,
        "Eccentricity": 0.0,
        "Inclination(deg)": 60.0,
        "Latitude(deg)": 42.38570153108007,
        "Longitude(deg)": 21.509201369716813,
        "Mean Anomaly(deg)": 50.95121843638549,
        "RAAN(deg)": 89.99873985258078,
        "Satellite Name": "Test1 399",
        "Satellite Number": 399,
        "Semi-Major Axis(m)": 6980739.136638005,
        "Time(s)": 30
    },
    {
        "Altitude(m)": 608290.4158045524,
        "Argument of Periapsis(deg)": 0.0004167578365318562,
        "Eccentricity": 0.0,
        "Inclination(deg)": 60.0,
        "Latitude(deg)": 42.84255557221886,
        "Longitude(deg)": 22.0374887338805,
        "Mean Anomaly(deg)": 51.5713245818473,
        "RAAN(deg)": 89.99831980344103,
        "Satellite Name": "Test1 399",
        "Satellite Number": 399,
        "Semi-Major Axis(m)": 6980739.136638005,
        "Time(s)": 40
    },
    {
        "Altitude(m)": 608391.1504419076,
        "Argument of Periapsis(deg)": 0.0005209472956648203,
        "Eccentricity": 0.0,
        "Inclination(deg)": 60.0,
        "Latitude(deg)": 43.29649548540139,
        "Longitude(deg)": 22.57419775430814,
        "Mean Anomaly(deg)": 52.19143072730915,
        "RAAN(deg)": 89.9978997543013,
        "Satellite Name": "Test1 399",
        "Satellite Number": 399,
        "Semi-Major Axis(m)": 6980739.136638005,
        "Time(s)": 50
    },
    {
        "Altitude(m)": 608491.683298585,
        "Argument of Periapsis(deg)": 0.0006251367547977843,
        "Eccentricity": 0.0,
        "Inclination(deg)": 60.0,
        "Latitude(deg)": 43.74743264118572,
        "Longitude(deg)": 23.11953428210677,
        "Mean Anomaly(deg)": 52.81153687277099,
        "RAAN(deg)": 89.99747970516154,
        "Satellite Name": "Test1 399",
        "Satellite Number": 399,
        "Semi-Major Axis(m)": 6980739.136638005,
        "Time(s)": 60
    },
    {
        "Altitude(m)": 608591.9522467948,
        "Argument of Periapsis(deg)": 0.0007293262139307483,
        "Eccentricity": 0.0,
        "Inclination(deg)": 60.0,
        "Latitude(deg)": 44.195275623019874,
        "Longitude(deg)": 23.673707714722696,
        "Mean Anomaly(deg)": 53.4316430182328,
        "RAAN(deg)": 89.9970596560218,
        "Satellite Name": "Test1 399",
        "Satellite Number": 399,
        "Semi-Major Axis(m)": 6980739.136638005,
        "Time(s)": 70
    },
    {
        "Altitude(m)": 608691.895509385,
        "Argument of Periapsis(deg)": 0.0008335156730637124,
        "Eccentricity": 0.0,
        "Inclination(deg)": 60.0,
        "Latitude(deg)": 44.63993014645288,
        "Longitude(deg)": 24.236929835837927,
        "Mean Anomaly(deg)": 54.051749163694645,
        "RAAN(deg)": 89.99663960688206,
        "Satellite Name": "Test1 399",
        "Satellite Number": 399,
        "Semi-Major Axis(m)": 6980739.136638005,
        "Time(s)": 80
    },
    {
        "Altitude(m)": 608791.4516903025,
        "Argument of Periapsis(deg)": 0.0009377051321966765,
        "Eccentricity": 0.0,
        "Inclination(deg)": 60.0,
        "Latitude(deg)": 45.081298978437594,
        "Longitude(deg)": 24.80941514233817,
        "Mean Anomaly(deg)": 54.671855309156456,
        "RAAN(deg)": 89.99621955774232,
        "Satellite Name": "Test1 399",
        "Satellite Number": 399,
        "Semi-Major Axis(m)": 6980739.136638005,
        "Time(s)": 90
    },
    {
        "Altitude(m)": 608890.5598048283,
        "Argument of Periapsis(deg)": 0.0010418945913296407,
        "Eccentricity": 0.0,
        "Inclination(deg)": 60.0,
        "Latitude(deg)": 45.51928185706499,
        "Longitude(deg)": 25.39138114322135,
        "Mean Anomaly(deg)": 55.29196145461831,
        "RAAN(deg)": 89.99579950860257,
        "Satellite Name": "Test1 399",
        "Satellite Number": 399,
        "Semi-Major Axis(m)": 6980739.136638005,
        "Time(s)": 100
    },
    {
        "Altitude(m)": 608989.1593095688,
        "Argument of Periapsis(deg)": 0.0011460840504626045,
        "Eccentricity": 0.0,
        "Inclination(deg)": 60.0,
        "Latitude(deg)": 45.95377541211228,
        "Longitude(deg)": 25.98304711519013,
        "Mean Anomaly(deg)": 55.91206760008013,
        "RAAN(deg)": 89.99537945946282,
        "Satellite Name": "Test1 399",
        "Satellite Number": 399,
        "Semi-Major Axis(m)": 6980739.136638005,
        "Time(s)": 110
    },
    {
        "Altitude(m)": 609087.1901322068,
        "Argument of Periapsis(deg)": 0.0012502735095955685,
        "Eccentricity": 0.0,
        "Inclination(deg)": 60.0,
        "Latitude(deg)": 46.38467308684343,
        "Longitude(deg)": 26.584634338179654,
        "Mean Anomaly(deg)": 56.53217374554196,
        "RAAN(deg)": 89.99495941032309,
        "Satellite Name": "Test1 399",
        "Satellite Number": 399,
        "Semi-Major Axis(m)": 6980739.136638005,
        "Time(s)": 120
    },
    {
        "Altitude(m)": 609184.59270093,
        "Argument of Periapsis(deg)": 0.0013544629687285324,
        "Eccentricity": 0.0,
        "Inclination(deg)": 60.0,
        "Latitude(deg)": 46.811865061542235,
        "Longitude(deg)": 27.196366295333856,
        "Mean Anomaly(deg)": 57.15227989100378,
        "RAAN(deg)": 89.99453936118334,
        "Satellite Name": "Test1 399",
        "Satellite Number": 399,
        "Semi-Major Axis(m)": 6980739.136638005,
        "Time(s)": 130
    },
    {
        "Altitude(m)": 609281.3079736426,
        "Argument of Periapsis(deg)": 0.0014586524278614966,
        "Eccentricity": 0.0,
        "Inclination(deg)": 60.0,
        "Latitude(deg)": 47.23523817931366,
        "Longitude(deg)": 27.818467321841307,
        "Mean Anomaly(deg)": 57.772386036465626,
        "RAAN(deg)": 89.9941193120436,
        "Satellite Name": "Test1 399",
        "Satellite Number": 399,
        "Semi-Major Axis(m)": 6980739.136638005,
        "Time(s)": 140
    },
    {
        "Altitude(m)": 609377.2774668208,
        "Argument of Periapsis(deg)": 0.0015628418869944607,
        "Eccentricity": 0.0,
        "Inclination(deg)": 60.0,
        "Latitude(deg)": 47.65467587475409,
        "Longitude(deg)": 28.45116272556953,
        "Mean Anomaly(deg)": 58.39249218192746,
        "RAAN(deg)": 89.99369926290386,
        "Satellite Name": "Test1 399",
        "Satellite Number": 399,
        "Semi-Major Axis(m)": 6980739.136638005,
        "Time(s)": 150
    },
    {
        "Altitude(m)": 609472.4432840894,
        "Argument of Periapsis(deg)": 0.0016670313461274247,
        "Eccentricity": 0.0,
        "Inclination(deg)": 60.0,
        "Latitude(deg)": 48.070058106146384,
        "Longitude(deg)": 29.094678863738384,
        "Mean Anomaly(deg)": 59.01259832738927,
        "RAAN(deg)": 89.99327921376411,
        "Satellite Name": "Test1 399",
        "Satellite Number": 399,
        "Semi-Major Axis(m)": 6980739.136638005,
        "Time(s)": 160
    },
    {
        "Altitude(m)": 609566.7481444647,
        "Argument of Periapsis(deg)": 0.0017712208052603888,
        "Eccentricity": 0.0,
        "Inclination(deg)": 60.0,
        "Latitude(deg)": 48.48126129189955,
        "Longitude(deg)": 29.74924165981227,
        "Mean Anomaly(deg)": 59.63270447285112,
        "RAAN(deg)": 89.99285916462438,
        "Satellite Name": "Test1 399",
        "Satellite Number": 399,
        "Semi-Major Axis(m)": 6980739.136638005,
        "Time(s)": 170
    },
    {
        "Altitude(m)": 609660.135410262,
        "Argument of Periapsis(deg)": 0.001875410264393353,
        "Eccentricity": 0.0,
        "Inclination(deg)": 60.0,
        "Latitude(deg)": 48.88815825203024,
        "Longitude(deg)": 30.415076583378756,
        "Mean Anomaly(deg)": 60.252810618312935,
        "RAAN(deg)": 89.99243911548463,
        "Satellite Name": "Test1 399",
        "Satellite Number": 399,
        "Semi-Major Axis(m)": 6980739.136638005,
        "Time(s)": 180
    },
    {
        "Altitude(m)": 609752.5491146613,
        "Argument of Periapsis(deg)": 0.0019795997235263173,
        "Eccentricity": 0.0,
        "Inclination(deg)": 60.0,
        "Latitude(deg)": 49.29061815554779,
        "Longitude(deg)": 31.092408577153662,
        "Mean Anomaly(deg)": 60.87291676377477,
        "RAAN(deg)": 89.9920190663449,
        "Satellite Name": "Test1 399",
        "Satellite Number": 399,
        "Semi-Major Axis(m)": 6980739.136638005,
        "Time(s)": 190
    }
]